NORAD_CAT_ID,OBJECT_NAME,OBJECT_TYPE,EPOCH,MEAN_MOTION,ECCENTRICITY,INCLINATION,RA_OF_ASC_NODE,ARG_OF_PERICENTER,MEAN_ANOMALY,BSTAR,MEAN_MOTION_DOT,MEAN_MOTION_DDOT,TLE_LINE0,TLE_LINE1,TLE_LINE2,SEMIMAJOR_AXIS,PERIOD,APOGEE,PERIGEE,DECAYED
53804.0,STARLINK-4729,PAYLOAD,2023-12-20 01:42:54,15.08841633,0.000137,53.2175,297.9123,86.054,274.0608,-9.6668e-05,-1.826e-05,0.0,0 STARLINK-4729,1 53804U 22111AH  23354.07146381 -.00001826  00000-0 -96668-4 0  9992,2 53804  53.2175 297.9123 0001370  86.0540 274.0608 15.08841633 71512,6917.875,95.437,540.688,538.793,0.0
53804.0,STARLINK-4729,PAYLOAD,2023-12-21 03:09:03,15.08842884,0.0001311,53.2172,293.1546,99.1127,261.0013,0.00016456,2.332e-05,0.0,0 STARLINK-4729,1 53804U 22111AH  23355.13129468  .00002332  00000-0  16456-3 0  9994,2 53804  53.2172 293.1546 0001311  99.1127 261.0013 15.08842884 70869,6917.872,95.437,540.644,538.83,0.0
53804.0,STARLINK-4729,PAYLOAD,2023-12-22 01:24:28,15.08837501,0.000126,53.2165,288.9953,99.0344,261.079,-2.3783e-05,-6.66e-06,0.0,0 STARLINK-4729,1 53804U 22111AH  23356.05866845 -.00000666  00000-0 -23783-4 0  9995,2 53804  53.2165 288.9953 0001260  99.0344 261.0790 15.08837501 71007,6917.888,95.438,540.625,538.881,0.0
53804.0,STARLINK-4729,PAYLOAD,2023-12-23 02:50:38,15.0884449,0.0001365,53.2168,284.2359,96.1026,264.0122,-2.9312e-05,-7.54e-06,0.0,0 STARLINK-4729,1 53804U 22111AH  23357.11850657 -.00000754  00000-0 -29312-4 0  9999,2 53804  53.2168 284.2359 0001365  96.1026 264.0122 15.08844490 71164,6917.867,95.437,540.676,538.787,0.0
53804.0,STARLINK-4729,PAYLOAD,2023-12-23 04:26:02,15.08845366,0.0001382,53.2172,283.9377,88.0311,272.084,-4.2973e-06,-3.56e-06,0.0,0 STARLINK-4729,1 53804U 22111AH  23357.18474550 -.00000356  00000-0 -42973-5 0  9997,2 53804  53.2172 283.9377 0001382  88.0311 272.0840 15.08845366 71980,6917.864,95.437,540.685,538.773,0.0
53804.0,STARLINK-4729,PAYLOAD,2023-12-24 02:41:26,15.08825,0.0001409,53.2179,279.7734,102.8162,257.2988,0.00028945,4.32e-05,0.0,0 STARLINK-4729,1 53804U 22111AH  23358.11210884  .00004320  00000-0  28945-3 0  9993,2 53804  53.2179 279.7734 0001409 102.8162 257.2988 15.08825000 71314,6917.926,95.439,540.766,538.817,0.0
53804.0,STARLINK-4729,PAYLOAD,2023-12-24 04:16:48,15.0884829,0.0001527,53.2179,279.4743,91.0851,269.0316,7.8529e-05,9.62e-06,0.0,0 STARLINK-4729,1 53804U 22111AH  23358.17834308  .00000962  00000-0  78529-4 0  9994,2 53804  53.2179 279.4743 0001527  91.0851 269.0316 15.08848290 71329,6917.855,95.437,540.776,538.664,0.0
53804.0,STARLINK-4729,PAYLOAD,2023-12-25 00:56:50,15.08843445,0.0001438,53.2178,275.6117,69.9027,290.2119,3.411e-05,2.55e-06,0.0,0 STARLINK-4729,1 53804U 22111AH  23359.03946857  .00000255  00000-0  34110-4 0  9996,2 53804  53.2178 275.6117 0001438  69.9027 290.2119 15.08843445 71459,6917.87,95.437,540.73,538.74,0.0
53804.0,STARLINK-4729,PAYLOAD,2023-12-25 04:07:35,15.08850451,0.0001425,53.2181,275.0127,96.4203,263.6952,8.0692e-05,9.97e-06,0.0,0 STARLINK-4729,1 53804U 22111AH  23359.17194064  .00000997  00000-0  80692-4 0  9995,2 53804  53.2181 275.0127 0001425  96.4203 263.6952 15.08850451 71471,6917.848,95.437,540.699,538.728,0.0
53804.0,STARLINK-4729,PAYLOAD,2023-12-25 18:26:05,15.0883781,0.0001242,53.2177,272.3382,94.2765,265.8369,-9.9636e-05,-1.873e-05,0.0,0 STARLINK-4729,1 53804U 22111AH  23359.76811574 -.00001873  00000-0 -99636-4 0  9996,2 53804  53.2177 272.3382 0001242  94.2765 265.8369 15.08837810 71565,6917.887,95.438,540.611,538.893,0.0
53804.0,STARLINK-4729,PAYLOAD,2023-12-25 21:36:51,15.08840826,0.0001367,53.217,271.7465,100.6436,259.471,-8.42e-05,-1.628e-05,0.0,0 STARLINK-4729,1 53804U 22111AH  23359.90059292 -.00001628  00000-0 -84200-4 0  9992,2 53804  53.2170 271.7465 0001367 100.6436 259.4710 15.08840826 72390,6917.878,95.438,540.689,538.797,0.0
53804.0,STARLINK-4729,PAYLOAD,2023-12-26 00:47:37,15.08843537,0.0001469,53.2176,271.1523,90.7501,269.3659,-5.759e-05,-1.204e-05,0.0,0 STARLINK-4729,1 53804U 22111AH  23360.03307075 -.00001204  00000-0 -57590-4 0  9995,2 53804  53.2176 271.1523 0001469  90.7501 269.3659 15.08843537 71607,6917.87,95.437,540.751,538.718,0.0
53804.0,STARLINK-4729,PAYLOAD,2023-12-26 03:58:23,15.08847401,0.0001435,53.2172,270.5541,100.2222,259.8932,-1.2155e-05,-4.81e-06,0.0,0 STARLINK-4729,1 53804U 22111AH  23360.16554572 -.00000481  00000-0 -12155-4 0  9999,2 53804  53.2172 270.5541 0001435 100.2222 259.8932 15.08847401 72430,6917.858,95.437,540.715,538.73,0.0
53804.0,STARLINK-4729,PAYLOAD,2023-12-26 21:27:37,15.08843197,0.0001628,53.217,267.2834,113.0778,247.0386,-3.8033e-05,-8.93e-06,0.0,0 STARLINK-4729,1 53804U 22111AH  23360.89418927 -.00000893  00000-0 -38033-4 0  9992,2 53804  53.2170 267.2834 0001628 113.0778 247.0386 15.08843197 72540,6917.871,95.437,540.862,538.609,0.0
53804.0,STARLINK-4729,PAYLOAD,2023-12-27 18:07:39,15.08834282,0.0001365,53.2164,263.4147,91.867,268.2479,5.7802e-05,6.32e-06,0.0,0 STARLINK-4729,1 53804U 22111AH  23361.75531291  .00000632  00000-0  57802-4 0  9992,2 53804  53.2164 263.4147 0001365  91.8670 268.2479 15.08834282 71867,6917.898,95.438,540.707,538.819,0.0
53804.0,STARLINK-4729,PAYLOAD,2023-12-27 21:18:25,15.08838814,0.0001356,53.2164,262.8198,94.6515,265.4632,-1.3292e-05,-4.99e-06,0.0,0 STARLINK-4729,1 53804U 22111AH  23361.88779275 -.00000499  00000-0 -13292-4 0  9990,2 53804  53.2164 262.8198 0001356  94.6515 265.4632 15.08838814 72692,6917.884,95.438,540.687,538.811,0.0
53804.0,STARLINK-4729,PAYLOAD,2023-12-28 03:39:57,15.08840847,0.0001371,53.2171,261.6328,102.5514,257.5632,1.2715e-05,-8.6e-07,0.0,0 STARLINK-4729,1 53804U 22111AH  23362.15275081 -.00000086  00000-0  12715-4 0  9997,2 53804  53.2171 261.6328 0001371 102.5514 257.5632 15.08840847 72733,6917.878,95.438,540.691,538.794,0.0
53804.0,STARLINK-4729,PAYLOAD,2023-12-28 22:44:35,15.08836304,0.000151,53.2164,258.0649,98.9756,261.1407,6.4884e-06,-1.85e-06,0.0,0 STARLINK-4729,1 53804U 22111AH  23362.94763472 -.00000185  00000-0  64884-5 0  9995,2 53804  53.2164 258.0649 0001510  98.9756 261.1407 15.08836304 72859,6917.892,95.438,540.801,538.712,0.0
53804.0,STARLINK-4729,PAYLOAD,2023-12-29 03:30:44,15.08841677,0.0001623,53.2165,257.1712,114.4406,245.6756,-5.0901e-05,-1.098e-05,0.0,0 STARLINK-4729,1 53804U 22111AH  23363.14635196 -.00001098  00000-0 -50901-4 0  9998,2 53804  53.2165 257.1712 0001623 114.4406 245.6756 15.08841677 72079,6917.875,95.437,540.863,538.617,0.0
53804.0,STARLINK-4729,PAYLOAD,2023-12-29 22:35:22,15.08836204,0.0001415,53.2164,253.6026,103.8994,256.2156,1.3302e-05,-7.6e-07,0.0,0 STARLINK-4729,1 53804U 22111AH  23363.94123593 -.00000076  00000-0  13302-4 0  9997,2 53804  53.2164 253.6026 0001415 103.8994 256.2156 15.08836204 73006,6917.892,95.438,540.736,538.778,0.0
53804.0,STARLINK-4729,PAYLOAD,2023-12-30 01:46:09,15.08837875,0.0001416,53.2163,253.0068,81.9231,278.1922,3.956e-05,3.42e-06,0.0,0 STARLINK-4729,1 53804U 22111AH  23364.07371552  .00000342  00000-0  39560-4 0  9991,2 53804  53.2163 253.0068 0001416  81.9231 278.1922 15.08837875 72217,6917.887,95.438,540.731,538.772,0.0
53804.0,STARLINK-4729,PAYLOAD,2023-12-30 22:26:09,15.0884559,0.0001436,53.2163,249.1439,98.0357,262.0798,-7.3912e-06,-4.06e-06,0.0,0 STARLINK-4729,1 53804U 22111AH  23364.93483339 -.00000406  00000-0 -73912-5 0  9996,2 53804  53.2163 249.1439 0001436  98.0357 262.0798 15.08845590 73155,6917.863,95.437,540.722,538.735,0.0
53804.0,STARLINK-4729,PAYLOAD,2023-12-31 00:01:32,15.0884715,0.0001417,53.2164,248.8467,93.4302,266.6852,-5.0887e-06,-3.69e-06,0.0,0 STARLINK-4729,1 53804U 22111AH  23365.00107241 -.00000369  00000-0 -50887-5 0  9994,2 53804  53.2164 248.8467 0001417  93.4302 266.6852 15.08847150 72357,6917.859,95.437,540.704,538.743,0.0
53804.0,STARLINK-4729,PAYLOAD,2023-12-31 19:06:11,15.08835207,0.0001407,53.2159,245.2802,88.4464,271.669,-3.1444e-05,-7.88e-06,0.0,0 STARLINK-4729,1 53804U 22111AH  23365.79596256 -.00000788  00000-0 -31444-4 0  9990,2 53804  53.2159 245.2802 0001407  88.4464 271.6690 15.08835207 72476,6917.895,95.438,540.733,538.787,0.0
53804.0,STARLINK-4729,PAYLOAD,2023-12-31 22:16:57,15.08835837,0.0001389,53.2157,244.6854,90.9193,269.1958,-2.2011e-05,-6.38e-06,0.0,0 STARLINK-4729,1 53804U 22111AH  23365.92844168 -.00000638  00000-0 -22011-4 0  9997,2 53804  53.2157 244.6854 0001389  90.9193 269.1958 15.08835837 73301,6917.893,95.438,540.719,538.797,0.0
53804.0,STARLINK-4729,PAYLOAD,2024-01-01 01:27:43,15.08839067,0.0001437,53.216,244.0906,88.5231,271.5926,1.059e-05,-1.19e-06,0.0,0 STARLINK-4729,1 53804U 22111AH  24001.06091903 -.00000119  00000-0  10590-4 0  9993,2 53804  53.2160 244.0906 0001437  88.5231 271.5926 15.08839067 73320,6917.883,95.438,540.742,538.754,0.0
53804.0,STARLINK-4729,PAYLOAD,2024-01-01 18:56:57,15.08846685,0.0001491,53.216,240.8198,78.0996,282.0164,4.5648e-05,4.39e-06,0.0,0 STARLINK-4729,1 53804U 22111AH  24001.78955245  .00000439  00000-0  45648-4 0  9996,2 53804  53.2160 240.8198 0001491  78.0996 282.0164 15.08846685 72626,6917.86,95.437,540.756,538.694,0.0
53804.0,STARLINK-4729,PAYLOAD,2024-01-01 22:07:43,15.08849911,0.0001473,53.216,240.2251,78.2574,281.8583,7.1822e-05,8.56e-06,0.0,0 STARLINK-4729,1 53804U 22111AH  24001.92202883  .00000856  00000-0  71822-4 0  9991,2 53804  53.2160 240.2251 0001473  78.2574 281.8583 15.08849911 73453,6917.85,95.437,540.734,538.696,0.0
53804.0,STARLINK-4729,PAYLOAD,2024-01-02 01:18:29,15.08852355,0.0001454,53.2159,239.6299,82.457,277.6587,8.9129e-05,1.131e-05,0.0,0 STARLINK-4729,1 53804U 22111AH  24002.05450556  .00001131  00000-0  89129-4 0  9994,2 53804  53.2159 239.6299 0001454  82.4570 277.6587 15.08852355 72662,6917.843,95.437,540.713,538.702,0.0
53804.0,STARLINK-4729,PAYLOAD,2024-01-02 21:58:28,15.08863106,0.0001355,53.216,235.763,89.4882,270.6265,0.00020462,2.972e-05,0.0,0 STARLINK-4729,1 53804U 22111AH  24002.91561172  .00002972  00000-0  20462-3 0  9994,2 53804  53.2160 235.7630 0001355  89.4882 270.6265 15.08863106 73600,6917.81,95.436,540.612,538.737,0.0
